{"type": "FeatureCollection", "features": [ {"type": "Feature", "properties": {"norad_id": 43108, "name": "BEIDOU-3 M8 (C28)", "group": "beidou", "lat": 31.15440046024302, "lon": 103.10926111043023, "alt_km": 21533.547504949707, "timestamp": "2025-12-15T20:48:54.148715+00:00", "meta": {"OBJECT_NAME": "BEIDOU-3 M8 (C28)", "OBJECT_ID": "2018-003B", "EPOCH": "2025-12-11T21:34:27.940800", "MEAN_MOTION": 1.86230629, "ECCENTRICITY": 0.00047751, "INCLINATION": 54.4899, "RA_OF_ASC_NODE": 308.8263, "ARG_OF_PERICENTER": 274.4182, "MEAN_ANOMALY": 85.5183, "EPHEMERIS_TYPE": 0, "CLASSIFICATION_TYPE": "U", "NORAD_CAT_ID": 43108, "ELEMENT_SET_NO": 999, "REV_AT_EPOCH": 5387, "BSTAR": 0, "MEAN_MOTION_DOT": -9e-07, "MEAN_MOTION_DDOT": 0}, "tle": {"line1": "1 43108U 18003B   25345.89893450 -.00000090  00000+0  00000+0 0  9991", "line2": "2 43108  54.4899 308.8263 0004775 274.4182  85.5183  1.86230629 53878"}}, "geometry": {"type": "Point", "coordinates": [103.10926111043023, 31.15440046024302]}}, {"type": "Feature", "properties": {"norad_id": 43207, "name": "BEIDOU-3 M4 (C22)", "group": "beidou", "lat": -20.088732241931393, "lon": -96.78855444308007, "alt_km": 21541.88814967577, "timestamp": "2025-12-15T20:48:54.148726+00:00", "meta": {"OBJECT_NAME": "BEIDOU-3 M4 (C22)", "OBJECT_ID": "2018-018A", "EPOCH": "2025-12-13T09:57:17.275392", "MEAN_MOTION": 1.86231174, "ECCENTRICITY": 0.00041262, "INCLINATION": 56.4868, "RA_OF_ASC_NODE": 69.2813, "ARG_OF_PERICENTER": 7.8207, "MEAN_ANOMALY": 352.2039, "EPHEMERIS_TYPE": 0, "CLASSIFICATION_TYPE": "U", "NORAD_CAT_ID": 43207, "ELEMENT_SET_NO": 999, "REV_AT_EPOCH": 5328, "BSTAR": 0, "MEAN_MOTION_DOT": -7.8e-07, "MEAN_MOTION_DDOT": 0}, "tle": {"line1": "1 43207U 18018A   25347.41478328 -.00000078  00000+0  00000+0 0  9996", "line2": "2 43207  56.4868  69.2813 0004126   7.8207 352.2039  1.86231174 53286"}}, "geometry": {"type": "Point", "coordinates": [-96.78855444308007, -20.088732241931393]}}, {"type": "Feature", "properties": {"norad_id": 43208, "name": "BEIDOU-3 M3 (C21)", "group": "beidou", "lat": 16.857597788363194, "lon": -122.35227457120837, "alt_km": 21543.01181587177, "timestamp": "2025-12-15T20:48:54.148738+00:00", "meta": {"OBJECT_NAME": "BEIDOU-3 M3 (C21)", "OBJECT_ID": "2018-018B", "EPOCH": "2025-12-10T19:07:00.567840", "MEAN_MOTION": 1.8623124, "ECCENTRICITY": 0.0006564, "INCLINATION": 56.484, "RA_OF_ASC_NODE": 69.3721, "ARG_OF_PERICENTER": 317.0111, "MEAN_ANOMALY": 42.9593, "EPHEMERIS_TYPE": 0, "CLASSIFICATION_TYPE": "U", "NORAD_CAT_ID": 43208, "ELEMENT_SET_NO": 999, "REV_AT_EPOCH": 5323, "BSTAR": 0, "MEAN_MOTION_DOT": -5.7e-07, "MEAN_MOTION_DDOT": 0}, "tle": {"line1": "1 43208U 18018B   25344.79653435 -.00000057  00000+0  00000+0 0  9996", "line2": "2 43208  56.4840  69.3721 0006564 317.0111  42.9593  1.86231240 53231"}}, "geometry": {"type": "Point", "coordinates": [-122.35227457120837, 16.857597788363194]}}, {"type": "Feature", "properties": {"norad_id": 43245, "name": "BEIDOU-3 M9 (C29)", "group": "beidou", "lat": 11.924006047477219, "lon": -44.956594565411606, "alt_km": 21527.137327721328, "timestamp": "2025-12-15T20:48:54.148749+00:00", "meta": {"OBJECT_NAME": "BEIDOU-3 M9 (C29)", "OBJECT_ID": "2018-029A", "EPOCH": "2025-12-13T16:44:23.331264", "MEAN_MOTION": 1.86228229, "ECCENTRICITY": 0.0001559, "INCLINATION": 54.3645, "RA_OF_ASC_NODE": 306.4338, "ARG_OF_PERICENTER": 282.9572, "MEAN_ANOMALY": 77.0146, "EPHEMERIS_TYPE": 0, "CLASSIFICATION_TYPE": "U", "NORAD_CAT_ID": 43245, "ELEMENT_SET_NO": 999, "REV_AT_EPOCH": 5244, "BSTAR": 0, "MEAN_MOTION_DOT": -9.8e-07, "MEAN_MOTION_DDOT": 0}, "tle": {"line1": "1 43245U 18029A   25347.69749226 -.00000098  00000+0  00000+0 0  9990", "line2": "2 43245  54.3645 306.4338 0001559 282.9572  77.0146  1.86228229 52449"}}, "geometry": {"type": "Point", "coordinates": [-44.956594565411606, 11.924006047477219]}}, {"type": "Feature", "properties": {"norad_id": 43246, "name": "BEIDOU-3 M10 (C30)", "group": "beidou", "lat": 43.68312574388211, "lon": -10.42395637493306, "alt_km": 21516.803502214043, "timestamp": "2025-12-15T20:48:54.148760+00:00", "meta": {"OBJECT_NAME": "BEIDOU-3 M10 (C30)", "OBJECT_ID": "2018-029B", "EPOCH": "2025-12-13T15:11:09.100608", "MEAN_MOTION": 1.86228859, "ECCENTRICITY": 0.00040776, "INCLINATION": 54.3622, "RA_OF_ASC_NODE": 306.4632, "ARG_OF_PERICENTER": 1.1886, "MEAN_ANOMALY": 358.8016, "EPHEMERIS_TYPE": 0, "CLASSIFICATION_TYPE": "U", "NORAD_CAT_ID": 43246, "ELEMENT_SET_NO": 999, "REV_AT_EPOCH": 5242, "BSTAR": 0, "MEAN_MOTION_DOT": -9.8e-07, "MEAN_MOTION_DDOT": 0}, "tle": {"line1": "1 43246U 18029B   25347.63274422 -.00000098  00000+0  00000+0 0  9996", "line2": "2 43246  54.3622 306.4632 0004077   1.1886 358.8016  1.86228859 52422"}}, "geometry": {"type": "Point", "coordinates": [-10.42395637493306, 43.68312574388211]}}, {"type": "Feature", "properties": {"norad_id": 43539, "name": "BEIDOU-2 IGSO-7 (C16)", "group": "beidou", "lat": -13.021563474006074, "lon": 155.35690530589417, "alt_km": 35915.004916300575, "timestamp": "2025-12-15T20:48:54.148771+00:00", "meta": {"OBJECT_NAME": "BEIDOU-2 IGSO-7 (C16)", "OBJECT_ID": "2018-057A", "EPOCH": "2025-12-14T21:33:09.867168", "MEAN_MOTION": 1.0025673, "ECCENTRICITY": 0.00924982, "INCLINATION": 55.1763, "RA_OF_ASC_NODE": 164.6522, "ARG_OF_PERICENTER": 235.2447, "MEAN_ANOMALY": 117.9811, "EPHEMERIS_TYPE": 0, "CLASSIFICATION_TYPE": "U", "NORAD_CAT_ID": 43539, "ELEMENT_SET_NO": 999, "REV_AT_EPOCH": 2727, "BSTAR": 0, "MEAN_MOTION_DOT": -2.4e-07, "MEAN_MOTION_DDOT": 0}, "tle": {"line1": "1 43539U 18057A   25348.89803087 -.00000024  00000+0  00000+0 0  9995", "line2": "2 43539  55.1763 164.6522 0092498 235.2447 117.9811  1.00256730 27278"}}, "geometry": {"type": "Point", "coordinates": [155.35690530589417, -13.021563474006074]}}, {"type": "Feature", "properties": {"norad_id": 43581, "name": "BEIDOU-3 M5 (C23)", "group": "beidou", "lat": -53.98910499351092, "lon": 94.2992172308514, "alt_km": 21533.743302734594, "timestamp": "2025-12-15T20:48:54.148783+00:00", "meta": {"OBJECT_NAME": "BEIDOU-3 M5 (C23)", "OBJECT_ID": "2018-062A", "EPOCH": "2025-12-12T05:55:01.607232", "MEAN_MOTION": 1.86228672, "ECCENTRICITY": 0.00021016, "INCLINATION": 54.0891, "RA_OF_ASC_NODE": 188.6597, "ARG_OF_PERICENTER": 354.1416, "MEAN_ANOMALY": 5.9159, "EPHEMERIS_TYPE": 0, "CLASSIFICATION_TYPE": "U", "NORAD_CAT_ID": 43581, "ELEMENT_SET_NO": 999, "REV_AT_EPOCH": 5015, "BSTAR": 0, "MEAN_MOTION_DOT": 7.9e-07, "MEAN_MOTION_DDOT": 0}, "tle": {"line1": "1 43581U 18062A   25346.24654638  .00000079  00000+0  00000+0 0  9990", "line2": "2 43581  54.0891 188.6597 0002101 354.1416   5.9159  1.86228672 50154"}}, "geometry": {"type": "Point", "coordinates": [94.2992172308514, -53.98910499351092]}}, {"type": "Feature", "properties": {"norad_id": 43582, "name": "BEIDOU-3 M6 (C24)", "group": "beidou", "lat": -0.5522180609858808, "lon": -171.86805003969585, "alt_km": 21513.77635387505, "timestamp": "2025-12-15T20:48:54.148794+00:00", "meta": {"OBJECT_NAME": "BEIDOU-3 M6 (C24)", "OBJECT_ID": "2018-062B", "EPOCH": "2025-12-13T04:24:17.587296", "MEAN_MOTION": 1.86229795, "ECCENTRICITY": 0.00078891, "INCLINATION": 54.0888, "RA_OF_ASC_NODE": 188.6169, "ARG_OF_PERICENTER": 47.4004, "MEAN_ANOMALY": 312.7289, "EPHEMERIS_TYPE": 0, "CLASSIFICATION_TYPE": "U", "NORAD_CAT_ID": 43582, "ELEMENT_SET_NO": 999, "REV_AT_EPOCH": 5017, "BSTAR": 0, "MEAN_MOTION_DOT": 9.2e-07, "MEAN_MOTION_DDOT": 0}, "tle": {"line1": "1 43582U 18062B   25347.18353689  .00000092  00000+0  00000+0 0  9992", "line2": "2 43582  54.0888 188.6169 0007889  47.4004 312.7289  1.86229795 50171"}}, "geometry": {"type": "Point", "coordinates": [-171.86805003969585, -0.5522180609858808]}}, {"type": "Feature", "properties": {"norad_id": 43602, "name": "BEIDOU-3 M12 (C26)", "group": "beidou", "lat": 32.16738937241218, "lon": -145.71572195832528, "alt_km": 21498.798918473847, "timestamp": "2025-12-15T20:48:54.148806+00:00", "meta": {"OBJECT_NAME": "BEIDOU-3 M12 (C26)", "OBJECT_ID": "2018-067A", "EPOCH": "2025-12-13T02:54:46.196064", "MEAN_MOTION": 1.8622768, "ECCENTRICITY": 0.00091748, "INCLINATION": 54.1833, "RA_OF_ASC_NODE": 187.3503, "ARG_OF_PERICENTER": 41.0824, "MEAN_ANOMALY": 319.0476, "EPHEMERIS_TYPE": 0, "CLASSIFICATION_TYPE": "U", "NORAD_CAT_ID": 43602, "ELEMENT_SET_NO": 999, "REV_AT_EPOCH": 4965, "BSTAR": 0, "MEAN_MOTION_DOT": 9.3e-07, "MEAN_MOTION_DDOT": 0}, "tle": {"line1": "1 43602U 18067A   25347.12136801  .00000093  00000+0  00000+0 0  9990", "line2": "2 43602  54.1833 187.3503 0009174  41.0824 319.0476  1.86227680 49652"}}, "geometry": {"type": "Point", "coordinates": [-145.71572195832528, 32.16738937241218]}}, {"type": "Feature", "properties": {"norad_id": 43603, "name": "BEIDOU-3 M11 (C25)", "group": "beidou", "lat": -37.86809828561499, "lon": 153.04991816440665, "alt_km": 21531.936769420878, "timestamp": "2025-12-15T20:48:54.148817+00:00", "meta": {"OBJECT_NAME": "BEIDOU-3 M11 (C25)", "OBJECT_ID": "2018-067B", "EPOCH": "2025-12-13T06:08:27.943008", "MEAN_MOTION": 1.86227177, "ECCENTRICITY": 0.00055759, "INCLINATION": 54.1803, "RA_OF_ASC_NODE": 187.3097, "ARG_OF_PERICENTER": 36.863, "MEAN_ANOMALY": 323.2366, "EPHEMERIS_TYPE": 0, "CLASSIFICATION_TYPE": "U", "NORAD_CAT_ID": 43603, "ELEMENT_SET_NO": 999, "REV_AT_EPOCH": 4968, "BSTAR": 0, "MEAN_MOTION_DOT": 9.5e-07, "MEAN_MOTION_DDOT": 0}, "tle": {"line1": "1 43603U 18067B   25347.25587897  .00000095  00000+0  00000+0 0  9992", "line2": "2 43603  54.1803 187.3097 0005575  36.8630 323.2366  1.86227177 49685"}}, "geometry": {"type": "Point", "coordinates": [153.04991816440665, -37.86809828561499]}}]}